226P/Pigott-LINEAR-Kowalski,e,44.0449,54.0132,341.0320,3.765306,0.1348974,0.52886472,71.0820,06/06.0/2025,2000,g 12.5,4.0
# From MPEC 2024-R10
227P/Catalina-LINEAR,e,7.5073,36.8025,105.5930,3.437638,0.1546372,0.52769717,70.3101,06/06.0/2025,2000,g 16.5,2.0
# From MPEC 2022-HC2
228P/LINEAR,e,7.9156,30.9551,114.7982,4.162225,0.1160689,0.17739541,222.2113,06/06.0/2025,2000,g 14.1,4.0
# From MPC182889
229P/Gibbs,e,26.0965,157.8807,224.2229,3.923499,0.1268217,0.37800685,11.6931,06/06.0/2025,2000,g 13.0,4.0
# From MPC184419
230P/LINEAR,e,15.4721,106.9269,313.5801,3.455072,0.1534682,0.54545607,180.2184,06/06.0/2025,2000,g 13.0,4.0
# From MPEC 2023-SQ0
231P/LINEAR-NEAT,e,12.2723,132.7827,43.7278,4.061398,0.1204178,0.24002500,264.9049,06/06.0/2025,2000,g 14.5,2.0
# From MPC112394
232P/Hill,e,14.6429,56.0110,53.2983,4.470071,0.1042875,0.33610828,234.5858,06/06.0/2025,2000,g 11.5,4.0
# From MPEC 2021-N06
233P/La Sagra,e,11.2889,74.8974,27.0258,3.026597,0.1871855,0.41297059,319.5416,06/06.0/2025,2000,g 15.0,4.0
# From MPC184419
234P/LINEAR,e,11.5337,179.5649,357.4456,3.798077,0.1331553,0.25727938,30.0019,06/06.0/2025,2000,g 12.0,4.0
# From MPC184419
235P/LINEAR,e,9.8125,200.1787,352.1605,3.446878,0.1540158,0.42612553,329.2580,06/06.0/2025,2000,g 12.0,4.0
# From MPEC 2024-P23
236P/LINEAR,e,16.3555,245.5692,119.4266,3.725319,0.1370752,0.50927123,16.7462,06/06.0/2025,2000,g 14.0,4.0
# From MPC182890
237P/LINEAR,e,14.0115,245.3578,25.5318,3.516970,0.1494346,0.43268635,112.6097,06/06.0/2025,2000,g 14.5,2.0
# From MPEC 2024-L77
238P/Read,e,1.2637,51.6485,324.2657,3.167516,0.1748340,0.25061570,191.8043,06/06.0/2025,2000,g 14.5,4.0
# From MPEC 2021-F20
239P/LINEAR,e,11.3067,255.9373,220.3822,4.463840,0.1045060,0.63149460,244.2426,06/06.0/2025,2000,g 17.5,2.0
# From MPEC 2024-YC7
240P/NEAT,e,23.5371,74.9134,352.0748,3.859967,0.1299657,0.45033452,334.3978,06/06.0/2025,2000,g 11.0,4.0
# From MPEC 2022-J42
241P/LINEAR,e,21.0948,305.4186,111.6125,4.927686,0.0901031,0.61014444,127.1175,06/06.0/2025,2000,g 13.5,4.0
# From MPC184419
242P/Spahr,e,32.4231,180.2474,244.9761,5.538025,0.0756261,0.28283555,12.4510,06/06.0/2025,2000,g  8.0,4.0
# From MPEC 2022-K19
243P/NEAT,e,7.6441,87.6477,283.7011,3.826937,0.1316519,0.36031165,325.1740,06/06.0/2025,2000,g 12.5,4.0
# From MPEC 2024-L77
244P/Scotti,e,2.2576,354.0076,93.5042,4.904471,0.0907436,0.19983554,84.2927,06/06.0/2025,2000,g  9.0,4.0
# From MPEC 2022-CN4
245P/WISE,e,21.1715,316.8853,316.5014,4.052708,0.1208053,0.45580324,323.9763,06/06.0/2025,2000,g 14.0,4.0
# From MPEC 2024-YC7
246P/NEAT,e,17.4893,74.2181,185.4981,4.296162,0.1106836,0.22049868,183.1567,06/06.0/2025,2000,g 10.5,4.0
# From MPEC 2021-F20
247P/LINEAR,e,13.6581,53.9872,47.5035,3.963904,0.1248876,0.62558244,296.6875,06/06.0/2025,2000,g 16.5,2.0
# From MPC 75730
248P/Gibbs,e,6.3520,207.8066,209.9803,5.981897,0.0673668,0.63928557,353.2009,06/06.0/2025,2000,g 14.0,4.0
# From MPEC 2022-YN2
249P/LINEAR,e,8.3849,239.0417,65.7501,2.765656,0.2142924,0.81937690,26.6371,06/06.0/2025,2000,g 15.5,4.0
# From MPC182890
250P/Larson,e,13.1521,73.3031,45.7062,3.776991,0.1342719,0.39837620,2.7214,06/06.0/2025,2000,g 14.5,4.0
# From MPEC 2024-TD8
251P/LINEAR,e,23.3884,219.3373,31.1929,3.511900,0.1497583,0.50421462,71.7117,06/06.0/2025,2000,g 16.5,2.0
# From MPEC 2021-S45
252P/LINEAR,e,10.4199,190.9062,343.3749,3.051230,0.1849233,0.67104660,263.8876,06/06.0/2025,2000,g 17.5,4.0
# From MPC182890
253P/PANSTARRS,e,4.9449,146.8346,230.8500,3.465164,0.1527982,0.41517781,34.8331,06/06.0/2025,2000,g 14.5,4.0
# From MPC184419
254P/McNaught,e,32.5387,129.1793,219.7265,4.620049,0.0992508,0.31847443,169.8724,06/06.0/2025,2000,g 11.0,4.0
# From NK 2214
255P/Levy,e,13.4053,275.6366,186.0449,2.942285,0.1952886,0.71205380,195.6651,06/06.0/2025,2000,g  9.0,4.0
# From MPEC 2024-L77
256P/LINEAR,e,27.6234,81.3248,124.0663,4.635076,0.0987686,0.41800959,80.6999,06/06.0/2025,2000,g 14.0,2.0
# From MPEC 2023-A50
257P/Catalina,e,20.2156,207.7287,117.7269,3.767951,0.1347554,0.42877352,233.3708,06/06.0/2025,2000,g 11.5,4.0
# From MPEC 2021-U31
258P/PANSTARRS,e,6.7511,126.2360,25.6081,4.388860,0.1071955,0.20954449,194.4019,06/06.0/2025,2000,g 13.0,4.0
# From MPC106349
259P/Garradd,e,15.8982,51.3732,257.4884,2.729404,0.2185760,0.33873276,265.5398,06/06.0/2025,2000,g 15.5,4.0
# From MPEC 2022-O01
260P/McNaught,e,15.0430,349.3051,18.4922,3.623643,0.1428848,0.60879058,299.2754,06/06.0/2025,2000,g 13.5,4.0
# From MPEC 2021-J28
261P/Larson,e,6.0733,291.0505,67.3644,3.489679,0.1511909,0.42280959,329.0999,06/06.0/2025,2000,g 14.0,4.0
# From MPC 82322
262P/McNaught-Russell,e,29.2496,217.8865,171.0696,6.869348,0.0547433,0.81598027,249.5258,06/06.0/2025,2000,g 13.5,4.0
# From MPEC 2024-L77
263P/Gibbs,e,11.5267,105.5039,35.0217,3.040866,0.1858695,0.59405038,159.3080,06/06.0/2025,2000,g 18.0,4.0
# From MPC114608
264P/Larsen,e,25.1461,219.1501,341.1330,4.029306,0.1218593,0.34039499,281.0805,06/06.0/2025,2000,g 13.0,4.0
# From MPC 79870
265P/LINEAR,e,14.3408,342.9219,33.5635,4.260811,0.1120639,0.64672771,176.8704,06/06.0/2025,2000,g 14.5,4.0
# From MPEC 2021-F20
266P/Christensen,e,3.4283,4.9468,97.7900,3.527925,0.1487391,0.34093143,278.2957,06/06.0/2025,2000,g 14.7,4.0
# From MPC114608
267P/LONEOS,e,6.1400,228.5547,114.1984,3.208342,0.1715075,0.61486301,69.8167,06/06.0/2025,2000,g 19.5,4.0
# From MPC184419
268P/Bernardi,e,15.6615,125.6325,0.0166,4.591176,0.1001886,0.47449269,16.9840,06/06.0/2025,2000,g 14.0,4.0
# From MPEC 2023-J29
269P/Jedicke,e,7.0839,241.7646,225.7306,7.058477,0.0525578,0.43351080,204.5680,06/06.0/2025,2000,g 10.0,4.0
# From MPC 88332
270P/Gehrels,e,2.9248,223.0252,209.9283,6.649189,0.0574845,0.47018616,250.9140,06/06.0/2025,2000,g  8.0,4.0
# From MPC 92277
271P/van Houten-Lemmon,e,6.8667,9.2796,36.6171,7.032491,0.0528494,0.39587978,228.8951,06/06.0/2025,2000,g 11.0,4.0
# From MPEC 2023-D41
272P/NEAT,e,18.0822,109.4391,27.8897,4.462011,0.1045702,0.45550073,110.2700,06/06.0/2025,2000,g 16.0,2.0
# From MPC 82723
273P/Pons-Gambart,e,136.3699,320.3844,20.1266,31.92696,0.0054635,0.97452014,0.0000,12/21.9564/2012,2000,g 11.5,4.0
# From MPEC 2024-GJ3
274P/Tombaugh-Tenagra,e,15.8206,81.3176,38.4944,4.378492,0.1075765,0.44023938,124.1261,06/06.0/2025,2000,g 13.0,4.0
# From MPC 81862
275P/Hermann,e,21.2543,348.6851,173.8956,5.795785,0.0706376,0.71374848,324.0459,06/06.0/2025,2000,g 17.0,4.0
# From MPC184419
276P/Vorobjov,e,14.7755,211.2707,199.3532,5.366483,0.0792810,0.27352218,14.0319,06/06.0/2025,2000,g 11.5,4.0
# From MPEC 2021-F20
277P/LINEAR,e,16.7929,276.2601,152.4365,3.853608,0.1302875,0.50640117,210.7123,06/06.0/2025,2000,g 15.1,4.0
# From MPEC 2021-S45
278P/McNaught,e,6.6126,12.7795,240.3159,3.641373,0.1418425,0.45119540,242.1097,06/06.0/2025,2000,g 14.0,4.0
# From MPEC 2024-A43
279P/LaSagra,e,5.0529,346.0999,5.6322,3.568094,0.1462344,0.39944713,113.9525,06/06.0/2025,2000,g 14.0,4.0
# From MPEC 2024-RQ6
280P/Larsen,e,11.7754,131.3778,104.6392,4.524544,0.1024099,0.41682267,68.7790,06/06.0/2025,2000,g 12.5,4.0
# From MPEC 2023-D41
281P/MOSS,e,4.7176,87.1662,27.0082,4.886719,0.0912385,0.17392192,77.8080,06/06.0/2025,2000,g 11.0,4.0
# From MPC133426
282P/,e,5.8137,217.6073,9.0942,4.235470,0.1130711,0.18765416,149.5162,06/06.0/2025,2000,g 13.5,2.0
# From MPEC 2022-K19
283P/Spacewatch,e,14.4683,161.1234,22.1445,4.131734,0.1173561,0.48497326,160.3901,06/06.0/2025,2000,g 16.0,2.0
# From MPEC 2024-D33
284P/McNaught,e,11.8530,144.2643,202.4638,3.678915,0.1396769,0.37431674,190.4824,06/06.0/2025,2000,g 13.0,4.0
# From MPEC 2024-L77
285P/LINEAR,e,25.0327,185.5139,178.3851,4.505342,0.1030653,0.61807536,90.3036,06/06.0/2025,2000,g 15.0,4.0
# From MPEC 2024-LE0
286P/Christensen,e,17.2242,283.5748,24.0480,4.078923,0.1196426,0.43087999,134.0587,06/06.0/2025,2000,g 14.0,4.0
# From MPEC 2025-A40
287P/Christensen,e,16.3394,138.6947,190.3981,4.186775,0.1150495,0.27288347,80.1286,06/06.0/2025,2000,g 13.5,4.0
# From MPC133426
288P/,e,3.2383,83.1061,280.2870,3.050529,0.1849870,0.19961737,220.7060,06/06.0/2025,2000,g 16.0,2.0
# From MPEC 2024-O39
289P/Blanpain,e,5.9002,68.8910,9.8759,3.043739,0.1856064,0.68646084,9.7782,06/06.0/2025,2000,g 19.0,4.0
# From MPC 95214
290P/Jager,e,20.0452,302.6723,181.8586,6.213709,0.0636323,0.62823867,264.0923,06/06.0/2025,2000,g 10.5,4.0
# From MPEC 2024-YC7
291P/NEAT,e,6.3096,237.6618,173.5637,4.534939,0.1020580,0.43387188,77.9725,06/06.0/2025,2000,g 13.0,4.0
# From MPEC 2022-K19
292P/Li,e,24.3225,90.8953,319.6606,6.095954,0.0654850,0.58988645,270.5028,06/06.0/2025,2000,g 12.5,4.0
# From MPEC 2022-L66
293P/Spacewatch,e,9.0610,78.3612,40.9854,3.637661,0.1420596,0.41953050,231.2884,06/06.0/2025,2000,g 14.5,4.0
# From MPC184419
294P/LINEAR,e,17.7429,309.6004,237.5841,3.190290,0.1729652,0.60096056,348.5514,06/06.0/2025,2000,g 15.5,4.0
# From MPEC 2022-K19
295P/LINEAR,e,21.0848,7.3806,73.0413,5.298815,0.0808046,0.61763432,326.7304,06/06.0/2025,2000,g 12.0,4.0
# From MPEC 2021-N06
296P/Garradd,e,25.3751,263.5272,350.2374,3.471740,0.1523643,0.48598215,260.5904,06/06.0/2025,2000,g 14.0,4.0
# From MPC102956
297P/Beshore,e,11.2481,92.1754,142.3641,3.569570,0.1461437,0.28511596,233.6844,06/06.0/2025,2000,g 15.0,4.0
# From MPC114609
298P/Christensen,e,7.8723,52.7859,100.6202,3.588128,0.1450114,0.38691796,251.4190,06/06.0/2025,2000,g 15.0,4.0
# From MPEC 2024-TD8
299P/Catalina-PANSTARRS,e,10.4690,271.5804,323.6181,4.388758,0.1071992,0.28093411,43.0926,06/06.0/2025,2000,g 11.5,4.0
# From MPEC 2023-VM5
300P/Catalina,e,5.6766,95.6225,222.8783,2.696332,0.2226097,0.69209352,175.1916,06/06.0/2025,2000,g 16.0,4.0
# From MPC 89014
301P/LINEAR-NEAT,e,10.3288,351.0626,193.4330,5.751801,0.0714494,0.58622555,283.1118,06/06.0/2025,2000,g 13.0,4.0
# From MPEC 2024-YC7
302P/Lemmon-PANSTARRS,e,6.0357,121.7156,208.6251,4.267282,0.1118091,0.22933915,9.9066,06/06.0/2025,2000,g 12.5,4.0
# From MPC 92278
303P/NEAT,e,7.0162,347.9490,357.0297,5.039891,0.0871109,0.51027564,337.4457,06/06.0/2025,2000,g 13.5,4.0
# From MPEC 2022-K19
